COSMOS 2496             
1 39761U 14028A   25049.95821524  .00000028  00000+0  12730-3 0  9992
2 39761  82.4424  51.3953 0020797  55.1513 305.1519 12.42884338487481
COSMOS 2497             
1 39762U 14028B   25049.92929524  .00000039  00000+0  20985-3 0  9992
2 39762  82.4471  52.9053 0021233  50.1272 310.1671 12.42855792487482
COSMOS 2498             
1 39763U 14028C   25049.94537411  .00000029  00000+0  13408-3 0  9996
2 39763  82.4434  51.5951 0021938  49.5296 310.7691 12.42957765487519
COSMOS 2499 (RS-47)     
1 39765U 14028E   25049.90798653  .00000045  00000+0  12208-3 0  9996
2 39765  82.4473 218.5189 0232261  56.4309 305.8735 12.82886643503059
HODOYOSHI-4             
1 40011U 14033B   25049.89103510  .00003189  00000+0  36738-3 0  9994
2 40011  97.5601 253.3890 0025746 104.9738 255.4331 14.86134847576975
UNISAT-6                
1 40012U 14033C   25049.88259802  .00007416  00000+0  88231-3 0  9992
2 40012  97.7259 209.3436 0048587 217.7503 142.0300 14.83811433574374
DEIMOS-2                
1 40013U 14033D   25049.91558995  .00003422  00000+0  34911-3 0  9991
2 40013  97.6505 295.1101 0002145  98.1983 261.9479 14.91278461565637
BUGSAT-1 (TITA)         
1 40014U 14033E   25049.95108995  .00008762  00000+0  55119-3 0  9992
2 40014  98.0904 110.5066 0032674  25.6822 334.6019 15.09027820582798
SAUDISAT 4              
1 40016U 14033G   25049.93669279  .00002258  00000+0  31211-3 0  9990
2 40016  97.6897 210.1415 0045284 204.8271 155.0762 14.78346884574645
APRIZESAT 9             
1 40018U 14033J   25049.92339921  .00001566  00000+0  24289-3 0  9997
2 40018  97.8337 192.3119 0066612 314.9404  44.6413 14.73082314572384
BRITE-CA1 (TORONTO)     
1 40020U 14033L   25049.93037808  .00002180  00000+0  34492-3 0  9990
2 40020  97.9058 185.1732 0081284  24.4330 336.0696 14.71094572571121
DUCHIFAT-1              
1 40021U 14033M   25048.93971056  .00036195  00000+0  16106-2 0  9996
2 40021  98.1022  54.1243 0009345 359.4648   0.6574 15.21350905581300
NANOSATC-BR1            
1 40024U 14033Q   25049.94440638  .00020774  00000+0  11527-2 0  9996
2 40024  98.0880  40.5613 0007496  67.9740 292.2285 15.13764605580442
QB50P1                  
1 40025U 14033R   25049.88521732  .00016339  00000+0  10806-2 0  9996
2 40025  98.0739  26.6195 0013325  73.8150 286.4541 15.07383383579941
DTUSAT-2                
1 40030U 14033W   25049.87818216  .00012035  00000+0  84001-3 0  9995
2 40030  98.0437  16.6368 0012156  78.0287 282.2300 15.05467439579728
FLOCK 1C-4              
1 40031U 14033X   25049.97272757  .00049380  00000+0  18477-2 0  9997
2 40031  98.0916  48.3217 0006167  35.7312 324.4336 15.27130577580601
QB50P2                  
1 40032U 14033Y   25049.83810770  .00013386  00000+0  93162-3 0  9998
2 40032  98.0331  16.3991 0009890  28.7668 331.4101 15.05567756579693
PERSEUS-M1              
1 40039U 14033AF  25049.79817950  .00003910  00000+0  38269-3 0  9996
2 40039  97.9219 343.4414 0013880  98.7566 261.5225 14.92831079578444
POLYITAN-1              
1 40042U 14033AJ  25049.91000548  .00023803  00000+0  13243-2 0  9998
2 40042  98.0976  32.7340 0011832  32.2404 327.9547 15.13603849580011
TIGRISAT                
1 40043U 14033AK  25049.91393320  .00006244  00000+0  77677-3 0  9994
2 40043  97.7183 208.9156 0051885 217.4877 142.2714 14.81909009573964
AISAT                   
1 40054U 14034B   25049.93215492  .00016067  00000+0  14038-2 0  9997
2 40054  98.3052 285.2912 0010052  41.1378 319.0598 14.96838757574620
CANX-4                  
1 40055U 14034C   25049.53843914  .00002535  00000+0  34439-3 0  9993
2 40055  98.3754 260.6218 0014041 120.5512 239.7086 14.79720563572994
CANX-5                  
1 40056U 14034D   25049.54182795  .00002518  00000+0  34206-3 0  9991
2 40056  98.3756 260.6413 0014046 120.7399 239.5196 14.79732924563774
VELOX-I                 
1 40057U 14034E   25049.87995945  .00008888  00000+0  89786-3 0  9996
2 40057  98.3102 283.4765 0009715  62.3318 297.8883 14.91264364574406
GONETS-M 10             
1 40063U 14036C   25049.94647768  .00000017  00000+0  49389-4 0  9992
2 40063  82.5053 247.7924 0022315 115.6634 244.6754 12.42927572482212
METEOR-M 2              
1 40069U 14037A   25049.95197100  .00000377  00000+0  19232-3 0  9992
2 40069  98.4593  39.4524 0005948  13.0379 347.0952 14.21220099550678
DX1                     
1 40071U 14037C   25049.92778964  .00004205  00000+0  47207-3 0  9992
2 40071  98.3380 340.0641 0008788  50.7249 309.4744 14.87324115574206
UKUBE-1                 
1 40074U 14037F   25049.86387670  .00016279  00000+0  12413-2 0  9992
2 40074  98.3839   2.8440 0002644  58.7861 301.3620 15.02119140575709
GAOFEN-2                
1 40118U 14049A   25049.89426504  .00002499  00000+0  33369-3 0  9990
2 40118  98.0764 107.9071 0004939 345.3378  14.7690 14.80468379567727
BRITE-PL2 (HEWELIUSZ)   
1 40119U 14049B   25049.84165144  .00005184  00000+0  52107-3 0  9991
2 40119  97.8831 154.9695 0013682 270.9576  89.0074 14.91615152569315
HODOYOSHI-1             
1 40299U 14070B   25049.93121468  .00353227  51235-4  90397-3 0  9993
2 40299  97.0905 118.1241 0004275 218.2277 141.8697 15.95299059573668
CBERS 4                 
1 40336U 14079A   25049.93523520  .00000325  00000+0  12759-3 0  9992
2 40336  98.3686 117.4307 0000835  53.6074 306.5189 14.35513164534627
SMAP                    
1 40376U 15003A   25049.93432423  .00001311  00000+0  26276-3 0  9990
2 40376  98.1306  58.8326 0001516  78.5756 281.5617 14.63373972536944
GONETS-M 11             
1 40552U 15020A   25049.86170956  .00000032  00000+0  15722-3 0  9990
2 40552  82.4909 332.1257 0016413 341.5671  18.4812 12.42888077448697
GONETS-M 12             
1 40553U 15020B   25049.91429565  .00000038  00000+0  20267-3 0  9996
2 40553  82.4944 333.0777 0014754 326.6367  33.3782 12.42897280448694
GONETS-M 13             
1 40554U 15020C   25049.88854729  .00000032  00000+0  15854-3 0  9997
2 40554  82.4904 331.8656 0012970 311.8357  48.1614 12.42887346448663
DMC3-FM1                
1 40715U 15032A   25049.91117412  .00001593  00000+0  19403-3 0  9991
2 40715  97.7166 287.2564 0005118 189.2936 170.8185 14.84754876518178
DMC3-FM2                
1 40716U 15032B   25049.93353185  .00001571  00000+0  19135-3 0  9991
2 40716  97.7222 288.5152 0006793 198.5466 161.5502 14.84769696518176
DMC3-FM3                
1 40717U 15032C   25049.90630294  .00001599  00000+0  19508-3 0  9992
2 40717  97.7274 289.8846 0008269 197.1463 162.9474 14.84657637518174
CARBONITE 1 (CBNT-1)    
1 40718U 15032D   25049.88801342  .00004335  00000+0  56518-3 0  9997
2 40718  97.6457 244.3091 0016217  79.3629 280.9409 14.80955176517748
DEORBITSAIL             
1 40719U 15032E   25049.87538129  .00013824  00000+0  12961-2 0  9993
2 40719  97.6567 272.0840 0012819  41.3945 318.8244 14.94062055518834
2015-049A               
1 40899U 15049A   25049.87887474  .00219497  00000+0  11662-2 0  9991
2 40899  97.4339  82.1271 0005852 122.5764 237.6069 15.79868644522869
2015-049G               
1 40905U 15049G   25049.95537035  .00023184  00000+0  59401-3 0  9993
2 40905  97.5131  69.3608 0009606 171.6421 188.4986 15.39339609521539
LILACSAT-2              
1 40908U 15049K   25049.94616154  .00018139  00000+0  53502-3 0  9995
2 40908  97.5167  67.8513 0009773 184.9415 175.1733 15.35011709521238
COSMOS 2507             
1 40920U 15050A   25049.93948195  .00000039  00000+0  21315-3 0  9990
2 40920  82.4944  20.5000 0009032 331.0232  29.0345 12.42905558426829
COSMOS 2508             
1 40921U 15050B   25049.96970144  .00000041  00000+0  22543-3 0  9990
2 40921  82.4899  19.1687 0014199   3.0450 357.0714 12.42890375426815
COSMOS 2509             
1 40922U 15050C   25049.91436047  .00000061  00000+0  36587-3 0  9990
2 40922  82.4901  19.2866 0015642  18.9839 341.1821 12.43061661426845
LAPAN-A2                
1 40931U 15052B   25038.81889873  .00001817  00000+0  15548-3 0  9992
2 40931   6.0001 108.1159 0012838 187.7041 172.2889 14.78568669506492
LQSAT                   
1 40958U 15057A   25049.95270392  .00001380  00000+0  20807-3 0  9992
2 40958  97.6597  63.1197 0018418  44.7063 315.5629 14.75742156504017
LINGQIAO VIDEO A        
1 40959U 15057B   25049.95834139  .00002135  00000+0  31445-3 0  9997
2 40959  97.6574  64.3885 0018228  43.9382 316.3274 14.76231800504086
LINGQIAO VIDEO B        
1 40960U 15057C   25049.96174734  .00001860  00000+0  27422-3 0  9992
2 40960  97.6570  65.6133 0018344  43.9323 316.3342 14.76331422504120
JILIN-1                 
1 40961U 15057D   25049.92782136  .00001622  00000+0  23617-3 0  9998
2 40961  97.6567  68.7418 0018183  39.8722 320.3821 14.77027565504246
FOX-1A (AO-85)          
1 40967U 15058D   25049.93214051  .00005815  00000+0  50652-3 0  9999
2 40967  64.7782 336.4705 0176676 229.9902 128.5590 14.86564276 41617
SINOD-D 1               
1 40968U 15058E   25049.94613944  .00007639  00000+0  62047-3 0  9992
2 40968  64.7778 326.1490 0167974 228.9765 129.6725 14.89842601 44504
ELEKTRO-L 2             
1 41105U 15074A   25049.75461219 -.00000109  00000+0  00000+0 0  9992
2 41105   5.4692  76.4771 0003402 221.4239 108.1313  1.00270633 33659
TELEOS-1                
1 41169U 15077D   25049.73916553  .00077567  00000+0  10466-2 0  9990
2 41169  14.9774  87.7354 0004621 210.9283 149.0771 15.55899229508958
DAMPE                   
1 41173U 15078A   25049.95307386  .00003056  00000+0  11159-3 0  9991
2 41173  97.4460  48.9823 0012281 358.2310   1.8884 15.28840584510660
ORBCOMM FM114           
1 41179U 15081A   25049.93649614  .00001443  00000+0  34847-3 0  9999
2 41179  47.0024 125.2562 0002288 199.8524 160.2273 14.57876687487214
ORBCOMM FM110           
1 41182U 15081D   25049.91204795  .00002295  00000+0  53271-3 0  9996
2 41182  47.0006 124.7395 0002860 299.6587  60.4014 14.57858154487088
